NORAD_CAT_ID,OBJECT_NAME,OBJECT_TYPE,EPOCH,MEAN_MOTION,ECCENTRICITY,INCLINATION,RA_OF_ASC_NODE,ARG_OF_PERICENTER,MEAN_ANOMALY,BSTAR,MEAN_MOTION_DOT,MEAN_MOTION_DDOT,TLE_LINE0,TLE_LINE1,TLE_LINE2,SEMIMAJOR_AXIS,PERIOD,APOGEE,PERIGEE,DECAYED
51987.0,STARLINK-3644,PAYLOAD,2022-10-29 16:24:22,15.08840438,0.0001662,53.2184,147.3728,48.3371,311.7764,6.464699999999999e-05,7.41e-06,0.0,0 STARLINK-3644,1 51987U 22025AH  22302.68359059  .00000741  00000-0  64647-4 0  9998,2 51987  53.2184 147.3728 0001662  48.3371 311.7764 15.08840438 35826,6917.879,95.438,540.894,538.594,0.0
51987.0,STARLINK-3644,PAYLOAD,2022-10-29 21:10:31,15.08842061,0.0001673,53.2184,146.4808,55.5614,304.5536,2.8495e-05,1.65e-06,0.0,0 STARLINK-3644,1 51987U 22025AH  22302.88231117  .00000165  00000-0  28495-4 0  9995,2 51987  53.2184 146.4808 0001673  55.5614 304.5536 15.08842061 35851,6917.874,95.437,540.896,538.582,0.0
51987.0,STARLINK-3644,PAYLOAD,2022-10-30 21:01:18,15.08839033,0.0001659,53.2184,142.02,52.2741,307.8402,1.7349e-05,-1.2e-07,0.0,0 STARLINK-3644,1 51987U 22025AH  22303.87591047 -.00000012  00000-0  17349-4 0  9994,2 51987  53.2184 142.0200 0001659  52.2741 307.8402 15.08839033 36009,6917.8830000000025,95.438,540.896,538.601,0.0
51987.0,STARLINK-3644,PAYLOAD,2022-10-31 06:33:37,15.08841096,0.0001699999999999,53.2183,140.236,51.3465,308.7679,2.1889e-05,6e-07,0.0,0 STARLINK-3644,1 51987U 22025AH  22304.27334914  .00000060  00000-0  21889-4 0  9993,2 51987  53.2183 140.2360 0001700  51.3465 308.7679 15.08841096 36069,6917.877,95.437,540.918,538.566,0.0
51987.0,STARLINK-3644,PAYLOAD,2022-10-31 19:16:43,15.08831125,0.0001492,53.2193,137.8561,61.261,298.8532,-5.692e-05,-1.193e-05,0.0,0 STARLINK-3644,1 51987U 22025AH  22304.80327879 -.00001193  00000-0 -56920-4 0  9998,2 51987  53.2193 137.8561 0001492  61.2610 298.8532 15.08831125 37234,6917.908,95.438,540.805,538.74,0.0
51987.0,STARLINK-3644,PAYLOAD,2022-11-01 06:24:24,15.08835649,0.0001625,53.2192,135.7739,62.574,297.5417,-6.1119000000000016e-06,-3.85e-06,0.0,0 STARLINK-3644,1 51987U 22025AH  22305.26695599 -.00000385  00000-0 -61119-5 0  9995,2 51987  53.2192 135.7739 0001625  62.5740 297.5417 15.08835649 37304,6917.894,95.438,540.883,538.635,0.0
51987.0,STARLINK-3644,PAYLOAD,2022-11-01 19:07:29,15.08837495,0.0001703,53.2188,133.3956,58.4547,301.6612,4.978800000000001e-05,5.04e-06,0.0,0 STARLINK-3644,1 51987U 22025AH  22305.79687416  .00000504  00000-0  49788-4 0  9990,2 51987  53.2188 133.3956 0001703  58.4547 301.6612 15.08837495 36292,6917.888000000001,95.438,540.931,538.575,0.0
51987.0,STARLINK-3644,PAYLOAD,2022-11-01 22:18:16,15.08838865,0.0001851999999999,53.2181,132.8014,58.3114,301.8059,7.8391e-05,9.6e-06,0.0,0 STARLINK-3644,1 51987U 22025AH  22305.92935288  .00000960  00000-0  78391-4 0  9996,2 51987  53.2181 132.8014 0001852  58.3114 301.8059 15.08838865 37401,6917.884,95.438,541.03,538.4680000000002,0.0
51987.0,STARLINK-3644,PAYLOAD,2022-11-02 12:36:44,15.08841143,0.0001955,53.2181,130.1251,58.7805,301.3379,6.8451e-05,8.01e-06,0.0,0 STARLINK-3644,1 51987U 22025AH  22306.52551252  .00000801  00000-0  68451-4 0  9998,2 51987  53.2181 130.1251 0001955  58.7805 301.3379 15.08841143 36402,6917.877,95.437,541.094,538.389,0.0
51987.0,STARLINK-3644,PAYLOAD,2022-11-02 14:12:07,15.08839734,0.0001957,53.2179,129.8283,55.5445,304.5732,4.6775e-05,4.56e-06,0.0,0 STARLINK-3644,1 51987U 22025AH  22306.59175407  .00000456  00000-0  46775-4 0  9990,2 51987  53.2179 129.8283 0001957  55.5445 304.5732 15.08839734 36418,6917.880999999999,95.438,541.1,538.3919999999998,0.0
51987.0,STARLINK-3644,PAYLOAD,2022-11-02 22:09:03,15.08822727,0.0001947,53.2181,128.3419,54.293,305.8243,0.00017701,2.529e-05,0.0,0 STARLINK-3644,1 51987U 22025AH  22306.92296288  .00002529  00000-0  17701-3 0  9997,2 51987  53.2181 128.3419 0001947  54.2930 305.8243 15.08822727 37551,6917.933000000001,95.439,541.145,538.451,0.0
51987.0,STARLINK-3644,PAYLOAD,2022-11-03 14:02:54,15.08843131,0.0001953,53.2182,125.3679,55.4288,304.6888,9.4998e-05,1.224e-05,0.0,0 STARLINK-3644,1 51987U 22025AH  22307.58535294  .00001224  00000-0  94998-4 0  9998,2 51987  53.2182 125.3679 0001953  55.4288 304.6888 15.08843131 37658,6917.871,95.437,541.087,538.385,0.0
51987.0,STARLINK-3644,PAYLOAD,2022-11-03 21:59:49,15.08850909,0.0002008,53.2177,123.8812,51.25100000000001,308.8661,9.1837e-05,1.174e-05,0.0,0 STARLINK-3644,1 51987U 22025AH  22307.91654699  .00001174  00000-0  91837-4 0  9999,2 51987  53.2177 123.8812 0002008  51.2510 308.8661 15.08850909 37700,6917.847,95.437,541.101,538.323,0.0
51987.0,STARLINK-3644,PAYLOAD,2022-11-04 04:21:22,15.08841299,0.0002139,53.2169,122.6914,49.8458,310.2721,8.8902e-06,-1.47e-06,0.0,0 STARLINK-3644,1 51987U 22025AH  22308.18151528 -.00000147  00000-0  88902-5 0  9992,2 51987  53.2169 122.6914 0002139  49.8458 310.2721 15.08841299 37740,6917.876,95.437,541.221,538.262,0.0
51987.0,STARLINK-3644,PAYLOAD,2022-11-04 12:18:18,15.088409400000002,0.0002165,53.215,121.2025,41.6063,318.5094,7.2548e-05,8.67e-06,0.0,0 STARLINK-3644,1 51987U 22025AH  22308.51271252  .00000867  00000-0  72548-4 0  9992,2 51987  53.2150 121.2025 0002165  41.6063 318.5094 15.08840940 36700,6917.878000000002,95.437,541.24,538.245,0.0
51987.0,STARLINK-3644,PAYLOAD,2022-11-04 20:15:14,15.08840008,0.0001736,53.2163,119.7157,35.7167,324.3941,6.2262e-05,7.03e-06,0.0,0 STARLINK-3644,1 51987U 22025AH  22308.84391301  .00000703  00000-0  62262-4 0  9997,2 51987  53.2163 119.7157 0001736  35.7167 324.3941 15.08840008 36750,6917.88,95.438,540.946,538.544,0.0
51987.0,STARLINK-3644,PAYLOAD,2022-11-05 12:09:06,15.08838788,0.0001807,53.2167,116.7425,40.1948,319.9178,-7.9649e-05,-1.555e-05,0.0,0 STARLINK-3644,1 51987U 22025AH  22309.50631978 -.00001555  00000-0 -79649-4 0  9993,2 51987  53.2167 116.7425 0001807  40.1948 319.9178 15.08838788 37941,6917.884,95.438,540.999,538.499,0.0
51987.0,STARLINK-3644,PAYLOAD,2022-11-05 18:30:38,15.08844171,0.0001888,53.2178,115.5553,51.2859,308.8302,-6.2059e-06,-3.87e-06,0.0,0 STARLINK-3644,1 51987U 22025AH  22309.77127396 -.00000387  00000-0 -62059-5 0  9996,2 51987  53.2178 115.5553 0001888  51.2859 308.8302 15.08844171 37988,6917.868,95.437,541.039,538.427,0.0
51987.0,STARLINK-3644,PAYLOAD,2022-11-05 20:06:01,15.08846417,0.0001877,53.2182,115.2579,53.3827,306.7338,5.9908e-06,-1.93e-06,0.0,0 STARLINK-3644,1 51987U 22025AH  22309.83751184 -.00000193  00000-0  59908-5 0  9994,2 51987  53.2182 115.2579 0001877  53.3827 306.7338 15.08846417 36906,6917.861,95.437,541.024,538.427,0.0
51987.0,STARLINK-3644,PAYLOAD,2022-11-06 18:21:25,15.08833356,0.0002056,53.218,111.0949,58.9548,301.1646,-1.4453e-06,-3.11e-06,0.0,0 STARLINK-3644,1 51987U 22025AH  22310.76488277 -.00000311  00000-0 -14453-5 0  9997,2 51987  53.2180 111.0949 0002056  58.9548 301.1646 15.08833356 38136,6917.901,95.438,541.188,538.3430000000002,0.0
51987.0,STARLINK-3644,PAYLOAD,2022-11-07 16:36:48,15.0884828,0.0001978,53.2186,106.9323,66.2126,293.9073,8.2673e-05,1.028e-05,0.0,0 STARLINK-3644,1 51987U 22025AH  22311.69223220  .00001028  00000-0  82673-4 0  9997,2 51987  53.2186 106.9323 0001978  66.2126 293.9073 15.08848280 38276,6917.855,95.437,541.0880000000002,538.352,0.0
51987.0,STARLINK-3644,PAYLOAD,2022-11-07 19:47:36,15.08834805,0.0001912,53.2192,106.3379,58.2142,301.9036,-1.0059e-05,-4.48e-06,0.0,0 STARLINK-3644,1 51987U 22025AH  22311.82472289 -.00000448  00000-0 -10059-4 0  9999,2 51987  53.2192 106.3379 0001912  58.2142 301.9036 15.08834805 37204,6917.896,95.438,541.0840000000002,538.439,0.0
51987.0,STARLINK-3644,PAYLOAD,2022-11-08 03:44:30,15.08844313,0.0001725,53.2183,104.8502,48.6446,311.4694,2.0179e-05,3.3e-07,0.0,0 STARLINK-3644,1 51987U 22025AH  22312.15591431  .00000033  00000-0  20179-4 0  9999,2 51987  53.2183 104.8502 0001725  48.6446 311.4694 15.08844313 38344,6917.8669999999975,95.437,540.9259999999998,538.539,0.0
51987.0,STARLINK-3644,PAYLOAD,2022-11-08 16:27:35,15.08850899,0.0001696,53.2188,102.4713,49.3036,310.8104,0.00017156,2.444e-05,0.0,0 STARLINK-3644,1 51987U 22025AH  22312.68582679  .00002444  00000-0  17156-3 0  9999,2 51987  53.2188 102.4713 0001696  49.3036 310.8104 15.08850899 38421,6917.847,95.437,540.885,538.539,0.0
51987.0,STARLINK-3644,PAYLOAD,2022-11-08 19:38:21,15.08856062,0.000189,53.2188,101.8773,50.6694,309.4465,0.00022452,3.288e-05,0.0,0 STARLINK-3644,1 51987U 22025AH  22312.81830241  .00003288  00000-0  22452-3 0  9997,2 51987  53.2188 101.8773 0001890  50.6694 309.4465 15.08856062 37354,6917.831,95.437,541.004,538.389,0.0
51987.0,STARLINK-3644,PAYLOAD,2022-11-09 14:42:59,15.08841671,0.0001771999999999,53.2184,98.3089,39.3135,320.7986,-1.2306e-05,-4.84e-06,0.0,0 STARLINK-3644,1 51987U 22025AH  22313.61319209 -.00000484  00000-0 -12306-4 0  9997,2 51987  53.2184  98.3089 0001772  39.3135 320.7986 15.08841671 37470,6917.875,95.437,540.966,538.514,0.0
51987.0,STARLINK-3644,PAYLOAD,2022-11-09 19:29:10,15.08830802,0.0001730999999999,53.2184,97.4161,47.4776,312.6362,-0.00013808,-2.484e-05,0.0,0 STARLINK-3644,1 51987U 22025AH  22313.81192190 -.00002484  00000-0 -13808-3 0  9996,2 51987  53.2184  97.4161 0001731  47.4776 312.6362 15.08830802 38593,6917.909000000002,95.438,540.971,538.576,0.0
51987.0,STARLINK-3644,PAYLOAD,2022-11-10 19:19:57,15.08831448,0.0001934,53.2186,92.957,45.2769,314.838,-0.00018138,-3.173e-05,0.0,0 STARLINK-3644,1 51987U 22025AH  22314.80552863 -.00003173  00000-0 -18138-3 0  9990,2 51987  53.2186  92.9570 0001934  45.2769 314.8380 15.08831448 37659,6917.906999999997,95.438,541.109,538.434,0.0
51987.0,STARLINK-3644,PAYLOAD,2022-11-11 09:38:26,15.08817107,0.0001822,53.2188,90.2807,42.2127,317.9006,0.0001357,1.871e-05,0.0,0 STARLINK-3644,1 51987U 22025AH  22315.40169207  .00001871  00000-0  13570-3 0  9999,2 51987  53.2188  90.2807 0001822  42.2127 317.9006 15.08817107 38832,6917.95,95.439,541.076,538.555,0.0
